{"type": "FeatureCollection", "features": [ {"type": "Feature", "properties": {"norad_id": 17070, "name": "POLAR BEAR", "group": "nnss", "lat": 28.102503349011904, "lon": 3.066315320383108, "alt_km": 968.4231964472137, "timestamp": "2025-12-25T07:00:34.314457+00:00", "meta": {"OBJECT_NAME": "POLAR BEAR", "OBJECT_ID": "1986-088A", "EPOCH": "2025-12-24T22:07:10.327584", "MEAN_MOTION": 13.75253229, "ECCENTRICITY": 0.00412851, "INCLINATION": 89.617, "RA_OF_ASC_NODE": 183.2859, "ARG_OF_PERICENTER": 84.2247, "MEAN_ANOMALY": 34.3522, "EPHEMERIS_TYPE": 0, "CLASSIFICATION_TYPE": "U", "NORAD_CAT_ID": 17070, "ELEMENT_SET_NO": 999, "REV_AT_EPOCH": 96146, "BSTAR": 9.5098307e-05, "MEAN_MOTION_DOT": 1.03e-06, "MEAN_MOTION_DDOT": 0}, "tle": {"line1": "1 17070U 86088A   25358.92164731  .00000103  00000+0  95098-4 0  9999", "line2": "2 17070  89.6170 183.2859 0041285  84.2247  34.3522 13.75253229961465"}}, "geometry": {"type": "Point", "coordinates": [3.066315320383108, 28.102503349011904]}}, {"type": "Feature", "properties": {"norad_id": 18361, "name": "OSCAR 27", "group": "nnss", "lat": 61.5426384422171, "lon": -99.5686899393799, "alt_km": 1056.9621997495733, "timestamp": "2025-12-25T07:00:34.314468+00:00", "meta": {"OBJECT_NAME": "OSCAR 27", "OBJECT_ID": "1987-080A", "EPOCH": "2025-12-24T17:55:02.715744", "MEAN_MOTION": 13.44909135, "ECCENTRICITY": 0.01039285, "INCLINATION": 90.3736, "RA_OF_ASC_NODE": 79.7212, "ARG_OF_PERICENTER": 189.2422, "MEAN_ANOMALY": 170.6816, "EPHEMERIS_TYPE": 0, "CLASSIFICATION_TYPE": "U", "NORAD_CAT_ID": 18361, "ELEMENT_SET_NO": 999, "REV_AT_EPOCH": 87718, "BSTAR": 0.00017485436, "MEAN_MOTION_DOT": 1.14e-06, "MEAN_MOTION_DDOT": 0}, "tle": {"line1": "1 18361U 87080A   25358.74655921  .00000114  00000+0  17485-3 0  9997", "line2": "2 18361  90.3736  79.7212 0103928 189.2422 170.6816 13.44909135877187"}}, "geometry": {"type": "Point", "coordinates": [-99.5686899393799, 61.5426384422171]}}, {"type": "Feature", "properties": {"norad_id": 18362, "name": "OSCAR 29", "group": "nnss", "lat": 70.11693704404071, "lon": -98.76113678396833, "alt_km": 1100.1978055042591, "timestamp": "2025-12-25T07:00:34.314479+00:00", "meta": {"OBJECT_NAME": "OSCAR 29", "OBJECT_ID": "1987-080B", "EPOCH": "2025-12-24T18:31:37.262784", "MEAN_MOTION": 13.44450686, "ECCENTRICITY": 0.01047338, "INCLINATION": 90.3749, "RA_OF_ASC_NODE": 80.1821, "ARG_OF_PERICENTER": 212.3351, "MEAN_ANOMALY": 262.8592, "EPHEMERIS_TYPE": 0, "CLASSIFICATION_TYPE": "U", "NORAD_CAT_ID": 18362, "ELEMENT_SET_NO": 999, "REV_AT_EPOCH": 87671, "BSTAR": 0.00016990363, "MEAN_MOTION_DOT": 1.1e-06, "MEAN_MOTION_DDOT": 0}, "tle": {"line1": "1 18362U 87080B   25358.77195906  .00000110  00000+0  16990-3 0  9999", "line2": "2 18362  90.3749  80.1821 0104733 212.3351 262.8592 13.44450686876713"}}, "geometry": {"type": "Point", "coordinates": [-98.76113678396833, 70.11693704404071]}}, {"type": "Feature", "properties": {"norad_id": 19070, "name": "OSCAR 23", "group": "nnss", "lat": -36.65327306023592, "lon": -163.45725142546127, "alt_km": 1113.3786387292312, "timestamp": "2025-12-25T07:00:34.314489+00:00", "meta": {"OBJECT_NAME": "OSCAR 23", "OBJECT_ID": "1988-033A", "EPOCH": "2025-12-24T19:56:45.202272", "MEAN_MOTION": 13.27789006, "ECCENTRICITY": 0.01904704, "INCLINATION": 90.3203, "RA_OF_ASC_NODE": 16.7669, "ARG_OF_PERICENTER": 146.3829, "MEAN_ANOMALY": 25.8694, "EPHEMERIS_TYPE": 0, "CLASSIFICATION_TYPE": "U", "NORAD_CAT_ID": 19070, "ELEMENT_SET_NO": 999, "REV_AT_EPOCH": 82413, "BSTAR": 0.00010964086, "MEAN_MOTION_DOT": 6.4e-07, "MEAN_MOTION_DDOT": 0}, "tle": {"line1": "1 19070U 88033A   25358.83107873  .00000064  00000+0  10964-3 0  9991", "line2": "2 19070  90.3203  16.7669 0190470 146.3829  25.8694 13.27789006824130"}}, "geometry": {"type": "Point", "coordinates": [-163.45725142546127, -36.65327306023592]}}, {"type": "Feature", "properties": {"norad_id": 19071, "name": "OSCAR 32", "group": "nnss", "lat": -28.501511360467422, "lon": 17.088234278530276, "alt_km": 1294.3007984957185, "timestamp": "2025-12-25T07:00:34.314500+00:00", "meta": {"OBJECT_NAME": "OSCAR 32", "OBJECT_ID": "1988-033B", "EPOCH": "2025-12-24T07:42:13.754592", "MEAN_MOTION": 13.27955652, "ECCENTRICITY": 0.01891926, "INCLINATION": 90.3208, "RA_OF_ASC_NODE": 16.8837, "ARG_OF_PERICENTER": 134.7211, "MEAN_ANOMALY": 237.9771, "EPHEMERIS_TYPE": 0, "CLASSIFICATION_TYPE": "U", "NORAD_CAT_ID": 19071, "ELEMENT_SET_NO": 999, "REV_AT_EPOCH": 82419, "BSTAR": 8.5937937e-05, "MEAN_MOTION_DOT": 5.3e-07, "MEAN_MOTION_DDOT": 0}, "tle": {"line1": "1 19071U 88033B   25358.32099253  .00000053  00000+0  85938-4 0  9990", "line2": "2 19071  90.3208  16.8837 0189192 134.7211 237.9771 13.27955652824199"}}, "geometry": {"type": "Point", "coordinates": [17.088234278530276, -28.501511360467422]}}, {"type": "Feature", "properties": {"norad_id": 19223, "name": "NOVA 2", "group": "nnss", "lat": -57.162447935786126, "lon": 78.23541175010003, "alt_km": 1163.3630366320303, "timestamp": "2025-12-25T07:00:34.314510+00:00", "meta": {"OBJECT_NAME": "NOVA 2", "OBJECT_ID": "1988-052A", "EPOCH": "2025-12-24T19:11:53.971008", "MEAN_MOTION": 13.22937139, "ECCENTRICITY": 0.00295439, "INCLINATION": 89.9863, "RA_OF_ASC_NODE": 78.2573, "ARG_OF_PERICENTER": 343.513, "MEAN_ANOMALY": 137.1394, "EPHEMERIS_TYPE": 0, "CLASSIFICATION_TYPE": "U", "NORAD_CAT_ID": 19223, "ELEMENT_SET_NO": 999, "REV_AT_EPOCH": 81107, "BSTAR": 0.00014443023, "MEAN_MOTION_DOT": 6.9e-07, "MEAN_MOTION_DDOT": 0}, "tle": {"line1": "1 19223U 88052A   25358.79993022  .00000069  00000+0  14443-3 0  9997", "line2": "2 19223  89.9863  78.2573 0029543 343.5130 137.1394 13.22937139811071"}}, "geometry": {"type": "Point", "coordinates": [78.23541175010003, -57.162447935786126]}}, {"type": "Feature", "properties": {"norad_id": 19419, "name": "OSCAR 25", "group": "nnss", "lat": -7.4659080712503325, "lon": -159.7195980605229, "alt_km": 1037.4021664089314, "timestamp": "2025-12-25T07:00:34.314523+00:00", "meta": {"OBJECT_NAME": "OSCAR 25", "OBJECT_ID": "1988-074A", "EPOCH": "2025-12-24T13:00:49.693248", "MEAN_MOTION": 13.42625466, "ECCENTRICITY": 0.00951606, "INCLINATION": 90.0336, "RA_OF_ASC_NODE": 20.2823, "ARG_OF_PERICENTER": 211.7174, "MEAN_ANOMALY": 313.9543, "EPHEMERIS_TYPE": 0, "CLASSIFICATION_TYPE": "U", "NORAD_CAT_ID": 19419, "ELEMENT_SET_NO": 999, "REV_AT_EPOCH": 82798, "BSTAR": 0.00013246409, "MEAN_MOTION_DOT": 8.6e-07, "MEAN_MOTION_DDOT": 0}, "tle": {"line1": "1 19419U 88074A   25358.54224182  .00000086  00000+0  13246-3 0  9994", "line2": "2 19419  90.0336  20.2823 0095160 211.7174 313.9543 13.42625466827989"}}, "geometry": {"type": "Point", "coordinates": [-159.7195980605229, -7.4659080712503325]}}, {"type": "Feature", "properties": {"norad_id": 19420, "name": "OSCAR 31", "group": "nnss", "lat": 68.97536085204567, "lon": 20.544641804681845, "alt_km": 1141.9557072625748, "timestamp": "2025-12-25T07:00:34.314545+00:00", "meta": {"OBJECT_NAME": "OSCAR 31", "OBJECT_ID": "1988-074B", "EPOCH": "2025-12-24T20:48:18.577152", "MEAN_MOTION": 13.42586519, "ECCENTRICITY": 0.00935792, "INCLINATION": 90.0354, "RA_OF_ASC_NODE": 20.6353, "ARG_OF_PERICENTER": 204.9262, "MEAN_ANOMALY": 331.0281, "EPHEMERIS_TYPE": 0, "CLASSIFICATION_TYPE": "U", "NORAD_CAT_ID": 19420, "ELEMENT_SET_NO": 999, "REV_AT_EPOCH": 82813, "BSTAR": 0.00010318326, "MEAN_MOTION_DOT": 6.9e-07, "MEAN_MOTION_DDOT": 0}, "tle": {"line1": "1 19420U 88074B   25358.86688168  .00000069  00000+0  10318-3 0  9997", "line2": "2 19420  90.0354  20.6353 0093579 204.9262 331.0281 13.42586519828130"}}, "geometry": {"type": "Point", "coordinates": [20.544641804681845, 68.97536085204567]}}]}